KUIPER-00074            
1 64821U 25151F   25361.10869110  .00005630  00000+0  76597-3 0  9998
2 64821  51.9018 251.5433 0013847  34.4448 325.7409 14.79947255 24694
KUIPER-00075            
1 64822U 25151G   25361.83114356  .00058838  00000+0  14489-2 0  9993
2 64822  51.8728 210.8941 0003804  45.6255 314.5043 15.40017129 25324
KUIPER-00076            
1 64823U 25151H   25361.10594203  .00006031  00000+0  81903-3 0  9991
2 64823  51.9010 254.0493 0005639  35.5144 324.6193 14.79952346 24669
KUIPER-00077            
1 64824U 25151J   25361.16806992 -.00001880  00000+0 -21737-3 0  9997
2 64824  51.9002 258.7813 0006263 358.7271   1.3675 14.79944360 24608
KUIPER-00078            
1 64825U 25151K   25361.13706917  .00006214  00000+0  84336-3 0  9999
2 64825  51.8997 256.4117 0008804  51.2007 308.9741 14.79920533 24637
KUIPER-00079            
1 64826U 25151L   25361.43553275  .00004795  00000+0  65647-3 0  9996
2 64826  51.8991 260.0767 0011991   4.4869 355.6198 14.79974412 25801
KUIPER-00080            
1 64827U 25151M   25361.87451383  .00005760  00000+0  78438-3 0  9997
2 64827  51.8987 258.1407 0006235  28.6106 331.5197 14.79904593 24672
KUIPER-00082            
1 64828U 25151N   25361.85411385 -.00001184  00000+0 -12618-3 0  9990
2 64828  51.9019 245.7481 0005296  55.5955 304.5507 14.79925589 24843
KUIPER-00083            
1 64829U 25151P   25361.10317985  .00006012  00000+0  81644-3 0  9998
2 64829  51.9003 256.5614 0011334   4.6046 355.5019 14.79933968 25813
KUIPER-00084            
1 64830U 25151Q   25361.83491492  .00006018  00000+0  82309-3 0  9991
2 64830  51.8997 263.3092 0010522 343.2628  16.7985 14.79631739 24591
KUIPER-00085            
1 64831U 25151R   25361.14509910 -.00000012  00000+0  27746-4 0  9995
2 64831  51.9026 248.8990 0007767  26.0749 334.0603 14.79942796 24735
KUIPER-00086            
1 64832U 25151S   25361.74206434  .00003548  00000+0  49369-3 0  9997
2 64832  51.8997 256.2439 0010869   4.5044 355.6014 14.79960238 24689
KUIPER-00087            
1 64833U 25151T   25361.82850214  .00000282  00000+0  66052-4 0  9999
2 64833  51.8985 238.3529 0000799  65.6139 294.4907 14.79935517 24933
KUIPER-00089            
1 64834U 25151U   25361.82308743  .00007449  00000+0  10053-2 0  9995
2 64834  51.9001 243.3798 0002910  42.6403 317.4785 14.79920575 24875
KUIPER-00090            
1 64835U 25151V   25361.85212167  .00003837  00000+0  57406-3 0  9994
2 64835  51.8976 235.3188 0004666 108.2905 251.8564 14.76659229 24986
KUIPER-00091            
1 64836U 25151W   25361.82584287  .00001689  00000+0  25073-3 0  9995
2 64836  51.9016 240.8761 0008403  61.0808 299.0996 14.79923519 24906
KUIPER-00092            
1 64837U 25151X   25361.41250275 -.00004346  00000+0 -54123-3 0  9991
2 64837  51.9020 250.1976 0003713  42.4220 317.7029 14.79932780 25955
KUIPER-00093            
1 64838U 25151Y   25361.83336806 -.00026756  00000+0 -34903-2 0  9995
2 64838  51.8988 250.8264 0003344  63.3512  34.3915 14.79979065  4265
KUIPER-00094            
1 64839U 25151Z   25361.86495069  .00010908  00000+0  77814-3 0  9995
2 64839  51.8884 232.7627 0004455  44.6794 315.4537 15.04997011 25021
KUIPER-00081            
1 65132U 25171A   25361.62570793 -.00277995  00000+0 -31282-1 0  9996
2 65132  51.8994 106.9826 0001758 306.4931  53.5872 14.87893453 22369
KUIPER-00088            
1 65133U 25171B   25361.62671719  .00003732  00000+0  55761-3 0  9991
2 65133  51.8983 124.7108 0007650 238.5221 121.4993 14.76770888 22119
KUIPER-00095            
1 65134U 25171C   25361.60392655  .00008325  00000+0  75806-3 0  9994
2 65134  51.8911 108.0230 0004610 243.8524 116.1971 14.95892830 22345
KUIPER-00096            
1 65135U 25171D   25361.48786314  .00000222  00000+0  58387-4 0  9994
2 65135  51.8979 117.3598 0009961 267.8682  92.1140 14.79945125 22209
KUIPER-00097            
1 65136U 25171E   25361.55279078  .00006103  00000+0  82876-3 0  9990
2 65136  51.9015 119.6915 0009653 271.7051  88.2806 14.79921129 22160
KUIPER-00098            
1 65137U 25171F   25361.55001161  .00005778  00000+0  78562-3 0  9991
2 65137  51.8993 122.0880 0006971 253.7878 106.2318 14.79960469 21484
KUIPER-00099            
1 65138U 25171G   25361.72969852  .00006973  00000+0  94157-3 0  9997
2 65138  51.9022 111.2614 0000586 127.3725 232.7291 14.79986015 22309
KUIPER-00100            
1 65139U 25171H   25361.83336806 -.00000559  00000+0 -44321-4 0  9992
2 65139  51.8994 108.1816 0000727 131.3098 285.1391 14.79974045  5697
KUIPER-00102            
1 65140U 25171J   25361.76345825  .00070740  00000+0  92401-2 0  9994
2 65140  51.8972 111.1461 0000700 114.5316 245.5719 14.79799988 22304
KUIPER-00103            
1 65141U 25171K   25361.77839352  .00006075  00000+0  82457-3 0  9990
2 65141  51.8976 128.5694 0005582 248.8953 111.1412 14.79961857 22067
KUIPER-00104            
1 65142U 25171L   25360.57108015  .00004127  00000+0  61541-3 0  9990
2 65142  51.9018 120.6011 0003281 296.7664  63.2961 14.76636302 22075
KUIPER-00105            
1 65143U 25171M   25361.61483395  .00006343  00000+0  85882-3 0  9990
2 65143  51.8993 124.3641 0012120 223.7218 136.2785 14.79972470 22116
KUIPER-00106            
1 65144U 25171N   25361.54476284  .00009268  00000+0  82504-3 0  9999
2 65144  51.8940 122.7046 0008912 218.7266 141.3065 14.96640487 22130
KUIPER-00107            
1 65145U 25171P   25361.83336806 -.00009011  00000+0 -10614-2 0  9997
2 65145  51.8987 105.9397 0003983 284.8995   6.7594 14.83398787  5726
KUIPER-00108            
1 65146U 25171Q   25361.58599207  .00005221  00000+0  71148-3 0  9993
2 65146  51.9025 119.4294 0008082 232.9637 127.0586 14.80036224 22188
KUIPER-00109            
1 65147U 25171R   25361.62569295  .00005428  00000+0  73951-3 0  9996
2 65147  51.9016 114.2012 0011657 248.8374 111.1342 14.79962692 22253
KUIPER-00110            
1 65148U 25171S   25360.56553419  .00004794  00000+0  65734-3 0  9995
2 65148  51.8988 131.4931 0001947 270.5883  89.4856 14.79940381 21910
KUIPER-00111            
1 65149U 25171T   25361.67429341  .00005129  00000+0  70104-3 0  9995
2 65149  51.8960 131.5166 0008151 234.6485 125.3716 14.79937194 22010
KUIPER-00112            
1 65150U 25171U   25361.72691699  .00004322  00000+0  59536-3 0  9990
2 65150  51.9013 113.8096 0008823 284.1725  75.8257 14.79943263 22260
KUIPER-00114            
1 65151U 25171V   25361.73902916  .00005943  00000+0  80770-3 0  9993
2 65151  51.8982 133.7684 0005924 220.3792 139.6731 14.79938440 21989
KUIPER-00115            
1 65152U 25171W   25359.65383181  .00002989  00000+0  42069-3 0  9995
2 65152  51.9000 135.4732 0009433 237.7696 122.2352 14.79955005 21780
KUIPER-00116            
1 65153U 25171X   25361.77565433  .00004684  00000+0  64250-3 0  9994
2 65153  51.8999 131.1342 0009666 211.0179 149.0214 14.79950261 22027
KUIPER-00118            
1 65154U 25171Y   25361.57040809  .00005372  00000+0  73267-3 0  9991
2 65154  51.9007 134.4967 0001168 189.2679 170.8262 14.79958885 21965
KUIPER-00119            
1 65155U 25171Z   25361.71885105  .00006332  00000+0  85776-3 0  9999
2 65155  51.8992 121.4222 0007903 241.0009 119.0161 14.79978609 22156
KUIPER-00120            
1 65762U 25217A   25361.77107148  .00004872  00000+0  69260-3 0  9991
2 65762  51.9002   9.8965 0003417  61.8673 298.2634 14.78366243 14102
KUIPER-00132            
1 65763U 25217B   25361.71651388  .00076502  00000+0  20145-2 0  9993
2 65763  51.8641 352.2869 0008294  67.6941 292.4925 15.37821791 14344
KUIPER-00133            
1 65764U 25217C   25361.44928889 -.00001253  00000+0 -13481-3 0  9996
2 65764  51.9043  12.5454 0012014  79.7202 280.5115 14.79928859 14041
KUIPER-00139            
1 65765U 25217D   25361.32004138  .00010580  00000+0  82001-3 0  9991
2 65765  51.8875   5.2007 0008761  70.0377 290.1537 15.01864977 14139
KUIPER-00142            
1 65766U 25217E   25361.83336806 -.00382104  00000+0 -30025-1 0  9991
2 65766  51.9005 354.6974 0003156  96.5806 233.7817 15.02472156  4658
KUIPER-00145            
1 65767U 25217F   25361.83336806 -.00516146  00000+0 -49991-1 0  9999
2 65767  51.9193 356.5984 0007214  70.1545 276.7767 14.94741069  5582
KUIPER-00147            
1 65768U 25217G   25361.83336806 -.00780522  00000+0 -77469-1 0  9992
2 65768  51.8939 359.0370 0011101  74.1515 134.3689 14.93969252  5338
KUIPER-00148            
1 65769U 25217H   25361.50783098  .00019023  00000+0  12147-2 0  9998
2 65769  51.8791 359.0764 0010172  94.3709 265.8428 15.08637499 14230
KUIPER-00150            
1 65770U 25217J   25361.83336806  .00023115  00000+0  30517-2 0  9995
2 65770  51.9024   8.3451 0000576 137.4753  96.0713 14.79918407  5727
KUIPER-00151            
1 65771U 25217K   25361.83336806  .00013480  00000+0  16833-2 0  9995
2 65771  51.9021   0.9068 0001551  81.8979  75.2198 14.82602392  5175
KUIPER-00152            
1 65772U 25217L   25361.83336806 -.00889915  00000+0 -46103-1 0  9994
2 65772  51.8863 351.9558 0003732  86.0666 142.3177 15.18298831  4873
KUIPER-00153            
1 65773U 25217M   25361.70895104  .00017516  00000+0  10350-2 0  9996
2 65773  51.8792   2.5629 0013425  72.3609 287.8832 15.11494653 14202
KUIPER-00155            
1 65774U 25217N   25361.71320044  .00055189  00000+0  14674-2 0  9995
2 65774  51.8677 352.2861 0010104  74.3086 285.9015 15.37653902 14349
KUIPER-00156            
1 65775U 25217P   25361.83336806 -.01113201  00000+0 -36533-1 0  9992
2 65775  51.8751 350.8702 0003019  56.2761 313.1040 15.33927436  5206
KUIPER-00158            
1 65776U 25217Q   25361.83336806  .00015275  00000+0  20012-2 0  9998
2 65776  51.8982   3.3467 0000959 178.6098 203.8423 14.80495792  5658
KUIPER-00163            
1 65777U 25217R   25361.75711568  .00035248  00000+0  47865-2 0  9999
2 65777  51.9015   6.1700 0001747  93.3672 266.7490 14.78513792 14150
